[{"OBJECT_NAME":"FLOCK 4BE-35","OBJECT_ID":"2024-149CU","EPOCH":"2026-03-05T11:51:00.783648","MEAN_MOTION":15.42743959,"ECCENTRICITY":0.00045465,"INCLINATION":97.3796,"RA_OF_ASC_NODE":147.6831,"ARG_OF_PERICENTER":272.5809,"MEAN_ANOMALY":87.4918,"EPHEMERIS_TYPE":0,"CLASSIFICATION_TYPE":"U","NORAD_CAT_ID":60558,"ELEMENT_SET_NO":999,"REV_AT_EPOCH":8635,"BSTAR":0.0023224109,"MEAN_MOTION_DOT":0.00102635,"MEAN_MOTION_DDOT":0},{"OBJECT_NAME":"FLOCK 4BE-5","OBJECT_ID":"2024-149CV","EPOCH":"2026-03-05T04:04:04.271232","MEAN_MOTION":15.36797845,"ECCENTRICITY":0.00024964,"INCLINATION":97.3885,"RA_OF_ASC_NODE":147.4105,"ARG_OF_PERICENTER":314.9178,"MEAN_ANOMALY":45.1864,"EPHEMERIS_TYPE":0,"CLASSIFICATION_TYPE":"U","NORAD_CAT_ID":60559,"ELEMENT_SET_NO":999,"REV_AT_EPOCH":8628,"BSTAR":0.00070560757,"MEAN_MOTION_DOT":0.00025347,"MEAN_MOTION_DDOT":0},{"OBJECT_NAME":"FLOCK 4BE-12","OBJECT_ID":"2024-149CW","EPOCH":"2026-03-05T04:48:01.815264","MEAN_MOTION":15.45584268,"ECCENTRICITY":0.00057137,"INCLINATION":97.3766,"RA_OF_ASC_NODE":148.0944,"ARG_OF_PERICENTER":276.9806,"MEAN_ANOMALY":83.0793,"EPHEMERIS_TYPE":0,"CLASSIFICATION_TYPE":"U","NORAD_CAT_ID":60560,"ELEMENT_SET_NO":999,"REV_AT_EPOCH":8637,"BSTAR":0.0023376069,"MEAN_MOTION_DOT":0.00113881,"MEAN_MOTION_DDOT":0},{"OBJECT_NAME":"FLOCK 4BE-3","OBJECT_ID":"2024-149CX","EPOCH":"2026-03-05T04:12:55.131840","MEAN_MOTION":15.37996257,"ECCENTRICITY":0.00031351,"INCLINATION":97.375,"RA_OF_ASC_NODE":147.3406,"ARG_OF_PERICENTER":301.4213,"MEAN_ANOMALY":58.6725,"EPHEMERIS_TYPE":0,"CLASSIFICATION_TYPE":"U","NORAD_CAT_ID":60561,"ELEMENT_SET_NO":999,"REV_AT_EPOCH":8633,"BSTAR":0.00059594255,"MEAN_MOTION_DOT":0.00022232,"MEAN_MOTION_DDOT":0},{"OBJECT_NAME":"FLOCK 4BE-19","OBJECT_ID":"2024-149CZ","EPOCH":"2026-03-05T04:31:39.402336","MEAN_MOTION":15.40107565,"ECCENTRICITY":0.00032411,"INCLINATION":97.379,"RA_OF_ASC_NODE":148.4418,"ARG_OF_PERICENTER":306.9051,"MEAN_ANOMALY":53.1898,"EPHEMERIS_TYPE":0,"CLASSIFICATION_TYPE":"U","NORAD_CAT_ID":60563,"ELEMENT_SET_NO":999,"REV_AT_EPOCH":8639,"BSTAR":0.00064623317,"MEAN_MOTION_DOT":0.00025849,"MEAN_MOTION_DDOT":0},{"OBJECT_NAME":"PELICAN-2","OBJECT_ID":"2025-009Y","EPOCH":"2026-03-05T05:50:39.030720","MEAN_MOTION":15.40305662,"ECCENTRICITY":0.00055841,"INCLINATION":97.4033,"RA_OF_ASC_NODE":154.4934,"ARG_OF_PERICENTER":233.127,"MEAN_ANOMALY":126.9464,"EPHEMERIS_TYPE":0,"CLASSIFICATION_TYPE":"U","NORAD_CAT_ID":62631,"ELEMENT_SET_NO":999,"REV_AT_EPOCH":6355,"BSTAR":0.0022932598,"MEAN_MOTION_DOT":0.00093384,"MEAN_MOTION_DDOT":0},{"OBJECT_NAME":"PELICAN-3","OBJECT_ID":"2025-188A","EPOCH":"2026-03-04T16:10:34.087296","MEAN_MOTION":15.40657683,"ECCENTRICITY":0.0002789,"INCLINATION":97.225,"RA_OF_ASC_NODE":141.2804,"ARG_OF_PERICENTER":207.1167,"MEAN_ANOMALY":152.9935,"EPHEMERIS_TYPE":0,"CLASSIFICATION_TYPE":"U","NORAD_CAT_ID":65315,"ELEMENT_SET_NO":999,"REV_AT_EPOCH":2922,"BSTAR":0.0012331792,"MEAN_MOTION_DOT":0.00050463,"MEAN_MOTION_DDOT":0},{"OBJECT_NAME":"PELICAN-4","OBJECT_ID":"2025-188B","EPOCH":"2026-03-05T05:01:18.201216","MEAN_MOTION":15.40639705,"ECCENTRICITY":0.00048602,"INCLINATION":97.2328,"RA_OF_ASC_NODE":141.9068,"ARG_OF_PERICENTER":107.6033,"MEAN_ANOMALY":252.5745,"EPHEMERIS_TYPE":0,"CLASSIFICATION_TYPE":"U","NORAD_CAT_ID":65316,"ELEMENT_SET_NO":999,"REV_AT_EPOCH":2930,"BSTAR":0.00022723832,"MEAN_MOTION_DOT":9.18e-5,"MEAN_MOTION_DDOT":0}]
